NORAD_CAT_ID,OBJECT_NAME,OBJECT_TYPE,EPOCH,MEAN_MOTION,ECCENTRICITY,INCLINATION,RA_OF_ASC_NODE,ARG_OF_PERICENTER,MEAN_ANOMALY,BSTAR,MEAN_MOTION_DOT,MEAN_MOTION_DDOT,TLE_LINE0,TLE_LINE1,TLE_LINE2,SEMIMAJOR_AXIS,PERIOD,APOGEE,PERIGEE,DECAYED
53631.0,STARLINK-4599,PAYLOAD,2023-06-20 20:05:29,15.08848558,8.64e-05,53.2168,10.8111,73.5777,286.531,5.6123e-05,6.06e-06,0.0,0 STARLINK-4599,1 53631U 22104AV  23171.83714388  .00000606  00000-0  56123-4 0  9996,2 53631  53.2168  10.8111 0000864  73.5777 286.5310 15.08848558 45872,6917.854,95.437,540.317,539.122,0.0
53631.0,STARLINK-4599,PAYLOAD,2023-06-21 13:34:43,15.08840832,8.35e-05,53.2169,7.54,81.315,278.7936,-5.723e-05,-1.198e-05,0.0,0 STARLINK-4599,1 53631U 22104AV  23172.56578462 -.00001198  00000-0 -57230-4 0  9997,2 53631  53.2169   7.5400 0000835  81.3150 278.7936 15.08840832 45983,6917.878,95.438,540.32,539.165,0.0
53631.0,STARLINK-4599,PAYLOAD,2023-06-21 18:20:53,15.0884181,8.74e-05,53.2169,6.6482,77.0365,283.0725,-3.1189e-06,-3.37e-06,0.0,0 STARLINK-4599,1 53631U 22104AV  23172.76450447 -.00000337  00000-0 -31189-5 0  9991,2 53631  53.2169   6.6482 0000874  77.0365 283.0725 15.08841810 45326,6917.875,95.437,540.344,539.135,0.0
53631.0,STARLINK-4599,PAYLOAD,2023-06-21 19:56:16,15.08842841,8.76e-05,53.2168,6.3509,79.6552,280.4539,2.4209e-05,9.8e-07,0.0,0 STARLINK-4599,1 53631U 22104AV  23172.83074392  .00000098  00000-0  24209-4 0  9996,2 53631  53.2168   6.3509 0000876  79.6552 280.4539 15.08842841 46027,6917.872,95.437,540.343,539.131,0.0
53631.0,STARLINK-4599,PAYLOAD,2023-06-22 18:11:40,15.08837514,8.64e-05,53.217,2.1884,81.3425,278.7665,0.00010268,1.347e-05,0.0,0 STARLINK-4599,1 53631U 22104AV  23173.75810897  .00001347  00000-0  10268-3 0  9993,2 53631  53.2170   2.1884 0000864  81.3425 278.7665 15.08837514 45475,6917.888,95.438,540.351,539.155,0.0
53631.0,STARLINK-4599,PAYLOAD,2023-06-23 21:13:13,15.08842627,9.96e-05,53.2168,357.1338,95.2896,264.821,0.00017045,2.426e-05,0.0,0 STARLINK-4599,1 53631U 22104AV  23174.88418808  .00002426  00000-0  17045-3 0  9993,2 53631  53.2168 357.1338 0000996  95.2896 264.8210 15.08842627 45643,6917.872,95.437,540.426,539.048,0.0
53631.0,STARLINK-4599,PAYLOAD,2023-06-24 05:10:09,15.08837966,8.97e-05,53.2172,355.6461,79.1122,280.9971,7.5112e-05,9.08e-06,0.0,0 STARLINK-4599,1 53631U 22104AV  23175.21539077  .00000908  00000-0  75112-4 0  9996,2 53631  53.2172 355.6461 0000897  79.1122 280.9971 15.08837966 45699,6917.887,95.438,540.372,539.131,0.0
53631.0,STARLINK-4599,PAYLOAD,2023-06-25 00:14:46,15.08855661,9.4e-05,53.2171,352.0765,79.5169,280.5929,0.00028513,4.255e-05,0.0,0 STARLINK-4599,1 53631U 22104AV  23176.01026250  .00004255  00000-0  28513-3 0  9990,2 53631  53.2171 352.0765 0000940  79.5169 280.5929 15.08855661 45815,6917.833,95.437,540.348,539.047,0.0
53631.0,STARLINK-4599,PAYLOAD,2023-06-25 05:00:56,15.08830162,4.18e-05,53.2165,351.1871,87.7176,272.3864,-0.00014378,-2.574e-05,0.0,0 STARLINK-4599,1 53631U 22104AV  23176.20899143 -.00002574  00000-0 -14378-3 0  9998,2 53631  53.2165 351.1871 0000418  87.7176 272.3864 15.08830162 45844,6917.91,95.438,540.065,539.486,0.0
53631.0,STARLINK-4599,PAYLOAD,2023-06-25 17:44:01,15.08842636,8.1e-05,53.2169,348.8065,80.5646,279.5438,0.0001757,2.51e-05,0.0,0 STARLINK-4599,1 53631U 22104AV  23176.73891042  .00002510  00000-0  17570-3 0  9991,2 53631  53.2169 348.8065 0000810  80.5646 279.5438 15.08842636 45929,6917.872,95.437,540.298,539.177,0.0
53631.0,STARLINK-4599,PAYLOAD,2023-06-26 17:34:49,15.08843138,0.0001049,53.2167,344.3466,89.9048,270.2064,0.00034582,5.221e-05,0.0,0 STARLINK-4599,1 53631U 22104AV  23177.73251307  .00005221  00000-0  34582-3 0  9990,2 53631  53.2167 344.3466 0001049  89.9048 270.2064 15.08843138 46075,6917.871,95.437,540.461,539.01,0.0
53631.0,STARLINK-4599,PAYLOAD,2023-06-27 11:04:03,15.08842884,9.53e-05,53.2164,341.0753,90.1135,269.9966,0.00025075,3.705e-05,0.0,0 STARLINK-4599,1 53631U 22104AV  23178.46115407  .00003705  00000-0  25075-3 0  9993,2 53631  53.2164 341.0753 0000953  90.1135 269.9966 15.08842884 46184,6917.872,95.437,540.396,539.077,0.0
53631.0,STARLINK-4599,PAYLOAD,2023-06-28 17:16:23,15.08841276,8.73e-05,53.2174,335.4249,95.5486,264.5606,8.9083e-05,1.13e-05,0.0,0 STARLINK-4599,1 53631U 22104AV  23179.71971411  .00001130  00000-0  89083-4 0  9997,2 53631  53.2174 335.4249 0000873  95.5486 264.5606 15.08841276 46378,6917.876,95.437,540.345,539.138,0.0
53631.0,STARLINK-4599,PAYLOAD,2023-07-01 18:24:07,15.08845567,9.61e-05,53.218,321.748,90.3463,269.7639,0.00013406,1.847e-05,0.0,0 STARLINK-4599,1 53631U 22104AV  23182.76675692  .00001847  00000-0  13406-3 0  9998,2 53631  53.2180 321.7480 0000961  90.3463 269.7639 15.08845567 46837,6917.863,95.437,540.393,539.064,0.0
53631.0,STARLINK-4599,PAYLOAD,2023-07-02 02:21:03,15.08834819,2.8e-05,53.2178,320.2608,107.244,252.8583,-2.103e-05,-6.22e-06,0.0,0 STARLINK-4599,1 53631U 22104AV  23183.09795861 -.00000622  00000-0 -21030-4 0  9991,2 53631  53.2178 320.2608 0000280 107.2440 252.8583 15.08834819 46881,6917.896,95.438,539.955,539.568,0.0
53631.0,STARLINK-4599,PAYLOAD,2023-07-02 15:04:08,15.08846421,8.46e-05,53.2176,317.8813,93.4399,266.669,0.00015864,2.238e-05,0.0,0 STARLINK-4599,1 53631U 22104AV  23183.62787697  .00002238  00000-0  15864-3 0  9998,2 53631  53.2176 317.8813 0000846  93.4399 266.6690 15.08846421 46969,6917.861,95.437,540.311,539.141,0.0
53631.0,STARLINK-4599,PAYLOAD,2023-07-03 14:54:55,15.0884674,9.14e-05,53.2173,313.4194,93.2355,266.8741,0.00014298,1.989e-05,0.0,0 STARLINK-4599,1 53631U 22104AV  23184.62147549  .00001989  00000-0  14298-3 0  9997,2 53631  53.2173 313.4194 0000914  93.2355 266.8741 15.08846740 47117,6917.86,95.437,540.357,539.092,0.0
53631.0,STARLINK-4599,PAYLOAD,2023-07-04 11:34:56,15.08841852,9.18e-05,53.2166,309.5547,86.3451,273.7647,0.00010112,1.322e-05,0.0,0 STARLINK-4599,1 53631U 22104AV  23185.48259782  .00001322  00000-0  10112-3 0  9997,2 53631  53.2166 309.5547 0000918  86.3451 273.7647 15.08841852 47246,6917.875,95.437,540.375,539.105,0.0
53631.0,STARLINK-4599,PAYLOAD,2023-07-05 14:36:30,15.08837181,9.17e-05,53.2171,304.4997,91.5792,268.5305,6.1938e-05,6.98e-06,0.0,0 STARLINK-4599,1 53631U 22104AV  23186.60868184  .00000698  00000-0  61938-4 0  9992,2 53631  53.2171 304.4997 0000917  91.5792 268.5305 15.08837181 47412,6917.889,95.438,540.388,539.12,0.0
53631.0,STARLINK-4599,PAYLOAD,2023-07-06 17:38:03,15.08847615,9.07e-05,53.2171,299.4449,83.5964,276.5131,0.00022151,3.24e-05,0.0,0 STARLINK-4599,1 53631U 22104AV  23187.73475925  .00003240  00000-0  22151-3 0  9993,2 53631  53.2171 299.4449 0000907  83.5964 276.5131 15.08847615 47585,6917.857,95.437,540.35,539.095,0.0
53631.0,STARLINK-4599,PAYLOAD,2023-07-06 23:59:36,15.08841595,9.39e-05,53.2169,298.2551,78.4731,281.6367,0.00015717,2.215e-05,0.0,0 STARLINK-4599,1 53631U 22104AV  23187.99972251  .00002215  00000-0  15717-3 0  9996,2 53631  53.2169 298.2551 0000939  78.4731 281.6367 15.08841595 47627,6917.876,95.437,540.39,539.091,0.0
53631.0,STARLINK-4599,PAYLOAD,2023-07-08 07:47:18,15.08837702,9.96e-05,53.2182,292.3104,87.0122,273.0984,0.00015165,2.126e-05,0.0,0 STARLINK-4599,1 53631U 22104AV  23189.32452215  .00002126  00000-0  15165-3 0  9996,2 53631  53.2182 292.3104 0000996  87.0122 273.0984 15.08837702 47821,6917.887,95.438,540.441,539.063,0.0
53631.0,STARLINK-4599,PAYLOAD,2023-07-09 12:24:15,15.08834501,0.0001053,53.2189,286.9568,85.9089,274.2024,-4.4049e-05,-9.89e-06,0.0,0 STARLINK-4599,1 53631U 22104AV  23190.51685127 -.00000989  00000-0 -44049-4 0  9990,2 53631  53.2189 286.9568 0001053  85.9089 274.2024 15.08834501 48008,6917.897,95.438,540.491,539.034,0.0
53631.0,STARLINK-4599,PAYLOAD,2023-07-10 12:15:02,15.08843143,9.89e-05,53.2184,282.4963,91.1928,268.9177,0.00012519,1.705e-05,0.0,0 STARLINK-4599,1 53631U 22104AV  23191.51044288  .00001705  00000-0  12519-3 0  9999,2 53631  53.2184 282.4963 0000989  91.1928 268.9177 15.08843143 48158,6917.871,95.437,540.42,539.052,0.0
53631.0,STARLINK-4599,PAYLOAD,2023-07-11 05:44:17,15.08835704,0.0001006,53.2181,279.2256,82.3088,277.8018,0.00017101,2.435e-05,0.0,0 STARLINK-4599,1 53631U 22104AV  23192.23908817  .00002435  00000-0  17101-3 0  9999,2 53631  53.2181 279.2256 0001006  82.3088 277.8018 15.08835704 48263,6917.894,95.438,540.454,539.063,0.0
53631.0,STARLINK-4599,PAYLOAD,2023-07-11 16:51:58,15.08846033,0.000102,53.2177,277.1438,82.4282,277.6826,0.00020115,2.915e-05,0.0,0 STARLINK-4599,1 53631U 22104AV  23192.70276211  .00002915  00000-0  20115-3 0  9999,2 53631  53.2177 277.1438 0001020  82.4282 277.6826 15.08846033 48330,6917.862,95.437,540.433,539.021,0.0
53631.0,STARLINK-4599,PAYLOAD,2023-07-12 11:56:36,15.08846257,8.76e-05,53.2166,273.5764,71.9338,288.1749,9.4491e-05,1.217e-05,0.0,0 STARLINK-4599,1 53631U 22104AV  23193.49764250  .00001217  00000-0  94491-4 0  9994,2 53631  53.2166 273.5764 0000876  71.9338 288.1749 15.08846257 48455,6917.861,95.437,540.332,539.12,0.0
53631.0,STARLINK-4599,PAYLOAD,2023-07-13 14:58:10,15.08837776,8.99e-05,53.2173,268.5187,100.8237,259.2856,1.2386e-05,-9.1e-07,0.0,0 STARLINK-4599,1 53631U 22104AV  23194.62372808 -.00000091  00000-0  12386-4 0  9997,2 53631  53.2173 268.5187 0000899 100.8237 259.2856 15.08837776 48624,6917.887,95.438,540.374,539.13,0.0
53631.0,STARLINK-4599,PAYLOAD,2023-07-14 11:38:11,15.08798865,0.0001134,53.2171,264.6526,94.7613,265.3509,0.00065451,0.00010132,0.0,0 STARLINK-4599,1 53631U 22104AV  23195.48485836  .00010132  00000-0  65451-3 0  9994,2 53631  53.2171 264.6526 0001134  94.7613 265.3509 15.08798865 48750,6918.006,95.44,540.656,539.087,0.0
53631.0,STARLINK-4599,PAYLOAD,2023-07-14 21:10:29,15.0884219,9.64e-05,53.2172,262.8682,83.3179,276.7923,0.00012263,1.665e-05,0.0,0 STARLINK-4599,1 53631U 22104AV  23195.88228437  .00001665  00000-0  12263-3 0  9994,2 53631  53.2172 262.8682 0000964  83.3179 276.7923 15.08842190 48819,6917.874,95.437,540.406,539.072,0.0
